STARLINK-1813_new
1 16711C 20073AT  21326.13648417  .00006235  00000-0  41770-3 0  3261
2 16711  53.0539  83.1343 0001221  85.8705 339.4659 15.06394569    15
STARLINK-1813_old
1 26711C 20073AT  21325.13977000  .00004094  00000-0  27436-3 0  3256
2 26711  53.0536  87.6085 0001249  89.0727 328.0860 15.06384194    15
